<?xml version="1.0" encoding="UTF-8"?>
<kml xmlns="http://www.opengis.net/kml/2.2" xmlns:gx="http://www.google.com/kml/ext/2.2" xmlns:kml="http://www.opengis.net/kml/2.2" xmlns:atom="http://www.w3.org/2005/Atom">
<Document>
	<name>Farmland_CO2 Outline</name>
	<open>1</open>
	<Schema name="Farmland_CO2 Outline" id="S_Farmland_CO2_Outline_SSSSSS">
		<SimpleField type="string" name="Domain"><displayName>&lt;b&gt;Domain&lt;/b&gt;</displayName>
</SimpleField>
		<SimpleField type="string" name="Comment"><displayName>&lt;b&gt;Comment&lt;/b&gt;</displayName>
</SimpleField>
		<SimpleField type="string" name="Type"><displayName>&lt;b&gt;Type&lt;/b&gt;</displayName>
</SimpleField>
		<SimpleField type="string" name="Project"><displayName>&lt;b&gt;Project&lt;/b&gt;</displayName>
</SimpleField>
		<SimpleField type="string" name="Droid"><displayName>&lt;b&gt;Droid&lt;/b&gt;</displayName>
</SimpleField>
		<SimpleField type="string" name="ShapeName"><displayName>&lt;b&gt;ShapeName&lt;/b&gt;</displayName>
</SimpleField>
	</Schema>
	<Style id="style0">
		<BalloonStyle>
			<text><![CDATA[<table border="0">
  <tr><td><b>Domain</b></td><td>$[Farmland_CO2 Outline/Domain]</td></tr>
  <tr><td><b>Comment</b></td><td>$[Farmland_CO2 Outline/Comment]</td></tr>
  <tr><td><b>Type</b></td><td>$[Farmland_CO2 Outline/Type]</td></tr>
  <tr><td><b>Project</b></td><td>$[Farmland_CO2 Outline/Project]</td></tr>
  <tr><td><b>Droid</b></td><td>$[Farmland_CO2 Outline/Droid]</td></tr>
  <tr><td><b>ShapeName</b></td><td>$[Farmland_CO2 Outline/ShapeName]</td></tr>
</table>]]></text>
		</BalloonStyle>
		<LineStyle>
			<color>ff0000ff</color>
			<width>3</width>
		</LineStyle>
		<PolyStyle>
			<color>ffff0000</color>
		</PolyStyle>
	</Style>
	<StyleMap id="style00">
		<Pair>
			<key>normal</key>
			<styleUrl>#style0</styleUrl>
		</Pair>
		<Pair>
			<key>highlight</key>
			<styleUrl>#style01</styleUrl>
		</Pair>
	</StyleMap>
	<Style id="style01">
		<BalloonStyle>
			<text><![CDATA[<table border="0">
  <tr><td><b>Domain</b></td><td>$[Farmland_CO2 Outline/Domain]</td></tr>
  <tr><td><b>Comment</b></td><td>$[Farmland_CO2 Outline/Comment]</td></tr>
  <tr><td><b>Type</b></td><td>$[Farmland_CO2 Outline/Type]</td></tr>
  <tr><td><b>Project</b></td><td>$[Farmland_CO2 Outline/Project]</td></tr>
  <tr><td><b>Droid</b></td><td>$[Farmland_CO2 Outline/Droid]</td></tr>
  <tr><td><b>ShapeName</b></td><td>$[Farmland_CO2 Outline/ShapeName]</td></tr>
</table>]]></text>
		</BalloonStyle>
		<LineStyle>
			<color>ff0000ff</color>
			<width>3</width>
		</LineStyle>
		<PolyStyle>
			<color>ffff0000</color>
		</PolyStyle>
	</Style>
	<Folder id="layer 0">
		<name>Farmland_CO2 Outline</name>
		<open>1</open>
		<Placemark>
			<name>C:\Users\grosst\OneDrive - California Resources Corporation\Desktop\SJV_CCS_TGG_July.pet</name>
			<styleUrl>#style00</styleUrl>
			<ExtendedData>
				<SchemaData schemaUrl="#S_Farmland_CO2_Outline_SSSSSS">
					<SimpleData name="Domain">Unknown</SimpleData>
					<SimpleData name="Comment"></SimpleData>
					<SimpleData name="Type">Lines/polygons</SimpleData>
					<SimpleData name="Project">C:\Users\grosst\OneDrive - California Resources Corporation\Desktop\SJV_CCS_TGG_July.pet</SimpleData>
					<SimpleData name="Droid">://1d9a2dd1-dd1d-4676-a92e-6057e64d33c2/7bbfa052-f14d-4bbf-afe7-c055f308e715</SimpleData>
					<SimpleData name="ShapeName">Delta map for MLSCCO2/All_2155 (20)</SimpleData>
				</SchemaData>
			</ExtendedData>
			<LineString>
				<coordinates>
					-119.3317145069523,35.61758437418169,0.304800609601219 -119.3318477798864,35.61632404058963,0.304800609601219 -119.3319810487277,35.61506370617005,0.304800609601219 -119.3322158066311,35.61346384908224,0.304800609601219 -119.3324505553833,35.61186399044799,0.304800609601219 -119.3329888276394,35.6103829320521,0.304800609601219 -119.3335270804715,35.60890187036285,0.304800609601219 -119.3339920644305,35.6071088648619,0.304800609601219 -119.3344570280769,35.60531585623069,0.304800609601219 -119.3344674072872,35.60450077073335,0.304800609601219 -119.3344777862913,35.60368568495181,0.304800609601219 -119.3343478963777,35.60282171006657,0.304800609601219 -119.3342180091982,35.60195773472622,0.304800609601219 -119.3340278601517,35.60044023026285,0.304800609601219 -119.3338377181349,35.59892272452642,0.304800609601219 -119.3335563299229,35.59733262705956,0.304800609601219 -119.3332749526109,35.59574252787656,0.304800609601219 -119.3326270930605,35.59393640673444,0.304800609601219 -119.3319792620138,35.59213028080126,0.304800609601219 -119.3315248632457,35.59108562950148,0.304800609601219 -119.3310704760406,35.59004097606292,0.304800609601219 -119.3308108638943,35.58907573926384,0.304800609601219 -119.330551257852,35.5881105015241,0.304800609601219 -119.3296805619353,35.58607204908214,0.304800609601219 -119.3288099092497,35.58403358873094,0.304800609601219 -119.3281145441258,35.58279711415265,0.304800609601219 -119.3274191999436,35.58156063500299,0.304800609601219 -119.3265566941564,35.58061359553606,0.304800609601219 -119.3256942082639,35.57966654964747,0.304800609601219 -119.3240453974576,35.57802207499562,0.304800609601219 -119.3223966526884,35.5763775771181,0.304800609601219 -119.3206772252781,35.57481541600056,0.304800609601219 -119.3189578632836,35.57325322983617,0.304800609601219 -119.3173581237315,35.57162899218935,0.304800609601219 -119.3157584474576,35.57000473264365,0.304800609601219 -119.3148952388769,35.568997735731,0.304800609601219 -119.3140320514646,35.56799073234036,0.304800609601219 -119.3130486909101,35.56700566154178,0.304800609601219 -119.3120653539447,35.56602058248035,0.304800609601219 -119.3103477772974,35.56454836123275,0.304800609601219 -119.3086302622254,35.56307611510762,0.304800609601219 -119.3069163337655,35.56182536544754,0.304800609601219 -119.3052024575052,35.5605745912618,0.304800609601219 -119.3034915509162,35.5595076201238,0.304800609601219 -119.3017806887774,35.55844062472025,0.304800609601219 -119.3000747102127,35.55767932327956,0.304800609601219 -119.2983687632722,35.55691799794047,0.304800609601219 -119.2966674089929,35.55644556005525,0.304800609601219 -119.2949660742852,35.55597309854618,0.304800609601219 -119.2932651316581,35.55552427162423,0.304800609601219 -119.2915642076199,35.55507542109848,0.304800609601219 -119.2898560482383,35.55416462293819,0.304800609601219 -119.2881479267372,35.55325380071591,0.304800609601219 -119.2864431437376,35.55255369875282,0.304800609601219 -119.2847383897975,35.55185357296056,0.304800609601219 -119.2830350383564,35.55124135157042,0.304800609601219 -119.2813317123056,35.55062910643778,0.304800609601219 -119.2796292626087,35.55007146243505,0.304800609601219 -119.277926836026,35.54951379474075,0.304800609601219 -119.2762323059735,35.54946286426004,0.304800609601219 -119.2745377780226,35.54941191043232,0.304800609601219 -119.272842649292,35.54932202646341,0.304800609601219 -119.2711475242715,35.54923211912871,0.304800609601219 -119.2694530258674,35.54918249486646,0.304800609601219 -119.2677585295111,35.54913284725807,0.304800609601219 -119.2660647876457,35.54913199505388,0.304800609601219 -119.264371045816,35.54913111952539,0.304800609601219 -119.2626778392495,35.5491650395238,0.304800609601219 -119.2609846312852,35.54919893621222,0.304800609601219 -119.2592916168737,35.54924552601847,0.304800609601219 -119.2575986005423,35.54929209251956,0.304800609601219 -119.255904932977,35.54929616721003,0.304800609601219 -119.2542112652443,35.54930021857831,0.304800609601219 -119.2525082691731,35.54869248156356,0.304800609601219 -119.2508052983002,35.54808472081795,0.304800609601219 -119.2490996049984,35.54729624406518,0.304800609601219 -119.2473939444398,35.5465077434035,0.304800609601219 -119.2456885192685,35.5457325821187,0.304800609601219 -119.2439831262817,35.54495739694073,0.304800609601219 -119.2422751715931,35.54401066178058,0.304800609601219 -119.24056725627,35.5430639025365,0.304800609601219 -119.2388557117773,35.54187385380258,0.304800609601219 -119.2371442168696,35.54068378067334,0.304800609601219 -119.235429706268,35.53928985007023,0.304800609601219 -119.2337152538449,35.53789589477545,0.304800609601219 -119.2320097535124,35.53709500135997,0.304800609601219 -119.2303042864305,35.53629408403184,0.304800609601219 -119.2286070804367,35.53604333903152,0.304800609601219 -119.2269098848027,35.53579257058211,0.304800609601219 -119.2252159238367,35.53575798512177,0.304800609601219 -119.2235219642974,35.5357233763267,0.304800609601219 -119.2218285799038,35.53572732155085,0.304800609601219 -119.220135195348,35.53573124345649,0.304800609601219 -119.2184423673661,35.53577268146552,0.304800609601219 -119.216749537677,35.53581409617074,0.304800609601219 -119.2150589037449,35.53600407008746,0.304800609601219 -119.2133682619949,35.53619402074678,0.304800609601219 -119.2119219545539,35.53736994759407,0.304800609601219 -119.2104756057112,35.53854585686999,0.304800609601219 -119.2097218712148,35.54038628288777,0.304800609601219 -119.208968102948,35.5422267029082,0.304800609601219 -119.2087533656932,35.54325132563814,0.304800609601219 -119.208538623082,35.5442759475652,0.304800609601219 -119.2076296310303,35.54453003226576,0.304800609601219 -119.2067206333559,35.54478411022159,0.304800609601219 -119.205029534438,35.54495641171746,0.304800609601219 -119.2033384284269,35.54512868994838,0.304800609601219 -119.2020228973709,35.54603647523892,0.304800609601219 -119.2007073372407,35.54694424612123,0.304800609601219 -119.2002468926411,35.5484290675147,0.304800609601219 -119.1997864313961,35.54991388628221,0.304800609601219 -119.1998059905812,35.55129863715126,0.304800609601219 -119.1998255504257,35.55268338723086,0.304800609601219 -119.2003960469789,35.55366811775122,0.304800609601219 -119.2009665572106,35.5546528452271,0.304800609601219 -119.2015491787673,35.55563701360178,0.304800609601219 -119.2021318142855,35.55662117881826,0.304800609601219 -119.2018159521132,35.55779687312038,0.304800609601219 -119.2015000808985,35.55897256604175,0.304800609601219 -119.2007236592418,35.55979010735105,0.304800609601219 -119.1999472221287,35.56060764348383,0.304800609601219 -119.1988610110844,35.5615222149524,0.304800609601219 -119.1977747758499,35.56243677648386,0.304800609601219 -119.1969700339051,35.56371123504847,0.304800609601219 -119.1961652669852,35.56498568767621,0.304800609601219 -119.1954072086214,35.56637744371387,0.304800609601219 -119.194649124565,35.56776919427686,0.304800609601219 -119.1934097362001,35.56916560917506,0.304800609601219 -119.1921703056874,35.57056201077653,0.304800609601219 -119.1915477844836,35.57195242514825,0.304800609601219 -119.1909252421998,35.57334283556485,0.304800609601219 -119.1909594838785,35.57472688566178,0.304800609601219 -119.1909937267114,35.57611093494972,0.304800609601219 -119.1913658752323,35.5774917118481,0.304800609601219 -119.1917380362684,35.57887248682361,0.304800609601219 -119.192177040182,35.58025261233433,0.304800609601219 -119.1926160588526,35.58163273548065,0.304800609601219 -119.1930865250399,35.58301255147308,0.304800609601219 -119.193557007039,35.58439236486726,0.304800609601219 -119.1945124167279,35.58530662673127,0.304800609601219 -119.1954678476931,35.58622088082539,0.304800609601219 -119.1972609706137,35.58673853775895,0.304800609601219 -119.1990541161435,35.58725616844994,0.304800609601219 -119.201171882214,35.58757747230638,0.304800609601219 -119.2032896648581,35.58789873967213,0.304800609601219 -119.2046390839293,35.58778815056338,0.304800609601219 -119.2059884993653,35.5876775466517,0.304800609601219 -119.2076049779195,35.58726607850447,0.304800609601219 -119.2092214402719,35.58685458905144,0.304800609601219 -119.2108156737418,35.58657711881418,0.304800609601219 -119.2124098964364,35.58629962789013,0.304800609601219 -119.2136328132501,35.58680207067604,0.304800609601219 -119.2148557450305,35.58730450120193,0.304800609601219 -119.2158626818821,35.58850301978528,0.304800609601219 -119.2168696481309,35.58970152952321,0.304800609601219 -119.2180709686036,35.59078114829451,0.304800609601219 -119.2192723206697,35.59186075484591,0.304800609601219 -119.2211086033051,35.59224548819812,0.304800609601219 -119.2229449031496,35.59263019408699,0.304800609601219 -119.2247389906693,35.59269284754581,0.304800609601219 -119.2265330809267,35.59275547484732,0.304800609601219 -119.2278429129931,35.59303165892105,0.304800609601219 -119.2291527538717,35.59330782902104,0.304800609601219 -119.2309715763058,35.59407390624261,0.304800609601219 -119.2327904326823,35.59483995633406,0.304800609601219 -119.2345439012354,35.59538803737804,0.304800609601219 -119.2362973931999,35.59593609331073,0.304800609601219 -119.2379892294817,35.59534720263498,0.304800609601219 -119.2396810414925,35.59475828855427,0.304800609601219 -119.2412590063404,35.59413786242261,0.304800609601219 -119.2428369473391,35.59351741589517,0.304800609601219 -119.2438695898267,35.59347038817358,0.304800609601219 -119.2449022311311,35.59342335178591,0.304800609601219 -119.2461970794976,35.59374077696125,0.304800609601219 -119.2474919378764,35.59405818846977,0.304800609601219 -119.2483685302419,35.59472587441606,0.304800609601219 -119.2492451368655,35.59539355392954,0.304800609601219 -119.2496117638547,35.59602285348261,0.304800609601219 -119.2499783964645,35.59665215177564,0.304800609601219 -119.2490870135172,35.59795879464539,0.304800609601219 -119.2481956021951,35.59926543033404,0.304800609601219 -119.2472093970956,35.60055672759575,0.304800609601219 -119.2462231609707,35.60184801624548,0.304800609601219 -119.2455503841261,35.60325296513247,0.304800609601219 -119.2448775842527,35.60465790950072,0.304800609601219 -119.24431657795,35.60600636196888,0.304800609601219 -119.2437555532159,35.60735481110355,0.304800609601219 -119.243855675885,35.6083657083886,0.304800609601219 -119.2439558010201,35.60937660515513,0.304800609601219 -119.2441117686455,35.61086831812383,0.304800609601219 -119.2442677419399,35.61236002994151,0.304800609601219 -119.2449026267289,35.6140419564007,0.304800609601219 -119.2455375375377,35.6157238783704,0.304800609601219 -119.2470192535962,35.61753597915338,0.304800609601219 -119.2485010350832,35.61934806068709,0.304800609601219 -119.2502180838856,35.62078402547936,0.304800609601219 -119.2519351927721,35.62221996543207,0.304800609601219 -119.2536407388792,35.6228950254033,0.304800609601219 -119.2553463130435,35.62357006154856,0.304800609601219 -119.2570524585429,35.62428054110224,0.304800609601219 -119.2587586335824,35.62499099679236,0.304800609601219 -119.260463736557,35.6256297077016,0.304800609601219 -119.262168866072,35.62626839481827,0.304800609601219 -119.2638639209084,35.62625118913167,0.304800609601219 -119.2655589750336,35.62623396010719,0.304800609601219 -119.2672187088783,35.62561318694539,0.304800609601219 -119.2688784176139,35.62499239124159,0.304800609601219 -119.2697164589327,35.62437153157343,0.304800609601219 -119.2705544875719,35.62375066603393,0.304800609601219 -119.2714377277901,35.62437070534634,0.304800609601219 -119.2723209813543,35.62499073815572,0.304800609601219 -119.2740260818819,35.62562230618784,0.304800609601219 -119.275731208653,35.62625385043142,0.304800609601219 -119.2774266415136,35.62626094565962,0.304800609601219 -119.2791220746668,35.62626801753958,0.304800609601219 -119.2804491439056,35.62669209983598,0.304800609601219 -119.2817762268595,35.62711616774956,0.304800609601219 -119.2818791839554,35.62847101939288,0.304800609601219 -119.2819821444509,35.62982587015362,0.304800609601219 -119.2815278760495,35.6310131998617,0.304800609601219 -119.2810735945026,35.63220052728092,0.304800609601219 -119.2808511462934,35.63308796648552,0.304800609601219 -119.2806286932729,35.63397540494544,0.304800609601219 -119.2799260379168,35.63577946026937,0.304800609601219 -119.2792233516638,35.63758351016376,0.304800609601219 -119.2785631261982,35.63953864964304,0.304800609601219 -119.2779028692686,35.64149378391048,0.304800609601219 -119.2777982966881,35.6422889367684,0.304800609601219 -119.2776937220808,35.64308408926053,0.304800609601219 -119.2771420070229,35.64401610414563,0.304800609601219 -119.2765902794307,35.64494811617774,0.304800609601219 -119.2761111589097,35.64661094639602,0.304800609601219 -119.2756320189677,35.64827377353489,0.304800609601219 -119.2762209364708,35.6498958803689,0.304800609601219 -119.2768098772619,35.65151798322746,0.304800609601219 -119.2781862050205,35.65301859846389,0.304800609601219 -119.2795625831295,35.65451919732445,0.304800609601219 -119.2812680034563,35.65512826917673,0.304800609601219 -119.282973449106,35.65573731724911,0.304800609601219 -119.2846682869078,35.65566736737401,0.304800609601219 -119.2863631218189,35.65559739417362,0.304800609601219 -119.2880495121682,35.65498976992542,0.304800609601219 -119.2897358775362,35.65438212242287,0.304800609601219 -119.2914120694308,35.65312978977576,0.304800609601219 -119.2930882101515,35.65187743362338,0.304800609601219 -119.2947724371596,35.65114064789324,0.304800609601219 -119.2964566339166,35.65040383889082,0.304800609601219 -119.2981424723087,35.64977266450926,0.304800609601219 -119.2998282847616,35.6491414668747,0.304800609601219 -119.3015147672129,35.64855411373614,0.304800609601219 -119.3032012255169,35.64796673735017,0.304800609601219 -119.304906008243,35.64853293103914,0.304800609601219 -119.3066108144985,35.64909910098687,0.304800609601219 -119.3083171640837,35.64976054673492,0.304800609601219 -119.3100235411824,35.65042196864704,0.304800609601219 -119.3117215982749,35.65056130109298,0.304800609601219 -119.3134196611346,35.65070061011686,0.304800609601219 -119.3151158573457,35.65072309418143,0.304800609601219 -119.316812054486,35.65074555488373,0.304800609601219 -119.3185073474578,35.65071167733792,0.304800609601219 -119.320202639029,35.65067777645446,0.304800609601219 -119.3218959814864,35.65052297657694,0.304800609601219 -119.3235893175533,35.65036815340546,0.304800609601219 -119.3252723732623,35.6495773223433,0.304800609601219 -119.3269553965245,35.64878646800437,0.304800609601219 -119.3283968737846,35.64707177390626,0.304800609601219 -119.3298382907942,35.6453570616432,0.304800609601219 -119.330515148749,35.64354123485019,0.304800609601219 -119.3311919767455,35.64172540289099,0.304800609601219 -119.3310410012399,35.64055716553302,0.304800609601219 -119.3308900300333,35.63938892739267,0.304800609601219 -119.330165320817,35.63825058051795,0.304800609601219 -119.3294406317082,35.63711222881186,0.304800609601219 -119.3288058218102,35.63602745009704,0.304800609601219 -119.3281710286962,35.63494266759618,0.304800609601219 -119.3280509867935,35.63389802170251,0.304800609601219 -119.327930947947,35.63285337521651,0.304800609601219 -119.3279842075622,35.6314684298171,0.304800609601219 -119.3280374653797,35.63008348356067,0.304800609601219 -119.3284292621689,35.62869488387751,0.304800609601219 -119.3288210456993,35.6273062821109,0.304800609601219 -119.3295862341441,35.62591364579499,0.304800609601219 -119.3303513966197,35.6245210038834,0.304800609601219 -119.3308550631346,35.62313118340722,0.304800609601219 -119.3313587125911,35.62174136003559,0.304800609601219 -119.3314550636615,35.62012630229632,0.304800609601219 -119.33155141094,35.61851124335666,0.304800609601219 -119.3317145069523,35.61758437418169,0.304800609601219 
				</coordinates>
			</LineString>
		</Placemark>
	</Folder>
</Document>
</kml>
