<?xml version="1.0" encoding="UTF-8"?>
<kml xmlns="http://www.opengis.net/kml/2.2" xmlns:gx="http://www.google.com/kml/ext/2.2" xmlns:xsi="http://www.w3.org/2001/XMLSchema-instance"
 xsi:schemaLocation="http://www.opengis.net/kml/2.2 http://schemas.opengis.net/kml/2.2.0/ogckml22.xsd http://www.google.com/kml/ext/2.2 http://code.google.com/apis/kml/schema/kml22gx.xsd">
<Document id="Oil_and_Gas_Field_Administrative_Boundaries selection">
  <name>Oil_and_Gas_Field_Administrative_Boundaries selection</name>
  <snippet></snippet>
  <description><![CDATA[]]></description>
  <Folder id="FeatureLayer0">
    <name>Oil_and_Gas_Field_Administrative_Boundaries selection</name>
    <snippet></snippet>
    <description><![CDATA[]]></description>
    <Placemark id="ID_00000">
      <name>Montalvo, West</name>
      <snippet></snippet>
      <description><![CDATA[<html xmlns:fo="http://www.w3.org/1999/XSL/Format" xmlns:msxsl="urn:schemas-microsoft-com:xslt">
<head>
<META http-equiv="Content-Type" content="text/html">
<meta http-equiv="content-type" content="text/html; charset=UTF-8">
</head>
<body style="margin:0px 0px 0px 0px;overflow:auto;background:#FFFFFF;">
<table style="font-family:Arial,Verdana,Times;font-size:12px;text-align:left;width:100%;border-collapse:collapse;padding:3px 3px 3px 3px">
<tr style="text-align:center;font-weight:bold;background:#9CBCE2">
<td>Montalvo, West</td>
</tr>
<tr>
<td>
<table style="font-family:Arial,Verdana,Times;font-size:12px;text-align:left;width:100%;border-spacing:0px; padding:3px 3px 3px 3px">
<tr>
<td>FID</td>
<td>512</td>
</tr>
<tr bgcolor="#D4E4F3">
<td>AREA_SQ_MI</td>
<td>13.3</td>
</tr>
<tr>
<td>AREA_ACRE</td>
<td>8492</td>
</tr>
<tr bgcolor="#D4E4F3">
<td>PERIMETER</td>
<td>16.81</td>
</tr>
<tr>
<td>Trigger_</td>
<td></td>
</tr>
<tr bgcolor="#D4E4F3">
<td>Shape__Are</td>
<td>50374223.632788</td>
</tr>
<tr>
<td>Shape__Len</td>
<td>31825.969678</td>
</tr>
<tr bgcolor="#D4E4F3">
<td>NAME</td>
<td>Montalvo, West</td>
</tr>
<tr>
<td>FIELD_CODE</td>
<td>476</td>
</tr>
<tr bgcolor="#D4E4F3">
<td>StartDate</td>
<td>1/11/1111</td>
</tr>
<tr>
<td>EndDate</td>
<td></td>
</tr>
<tr bgcolor="#D4E4F3">
<td>NoticeDate</td>
<td>&lt;Null&gt;</td>
</tr>
<tr>
<td>District_p</td>
<td>2</td>
</tr>
<tr bgcolor="#D4E4F3">
<td>District</td>
<td>Northern</td>
</tr>
<tr>
<td>District_L</td>
<td>Northern District</td>
</tr>
</table>
</td>
</tr>
</table>
</body><script type="text/javascript">
				function changeImage(attElement, nameElement) {
				document.getElementById('imageAttachment').src = attElement;
				document.getElementById('imageName').innerHTML = nameElement;}
			</script></html>
]]></description>
      <styleUrl>#PolyStyle00</styleUrl>
      <MultiGeometry>
        <Polygon>
          <extrude>0</extrude><altitudeMode>clampToGround</altitudeMode>
          <outerBoundaryIs><LinearRing><coordinates> -119.2378304896275,34.17727172994552,0 -119.2356953630804,34.17728581170684,0 -119.2274753605141,34.17726881222331,0 -119.2274406558997,34.19896599909439,0 -119.2003811016515,34.19896235770901,0 -119.2003693579759,34.20573881742355,0 -119.2004323595216,34.22000981909154,0 -119.2002753591628,34.23431781975708,0 -119.2002363614997,34.24863482178947,0 -119.2179273631919,34.24882682204641,0 -119.2357573692929,34.24892881845443,0 -119.2399330261943,34.24894797395416,0 -119.2410798343507,34.24895320668615,0 -119.2436316498322,34.24896481270183,0 -119.2532003703896,34.24900781880515,0 -119.262608585362,34.24907962900593,0 -119.2627643720969,34.24908081782259,0 -119.269354608854,34.24908285536961,0 -119.2682655506923,34.24548166713247,0 -119.2679925724404,34.24541112515631,0 -119.2678539282561,34.24534151060259,0 -119.2677668141314,34.24519476937736,0 -119.2676799479417,34.24496691043839,0 -119.2674374117982,34.24443892883066,0 -119.2673883062915,34.24425809675414,0 -119.2671592089446,34.24341442468896,0 -119.2670551831363,34.24309829490475,0 -119.2669859553673,34.24280773691067,0 -119.2669339294376,34.24239166879436,0 -119.2668468117197,34.24193622176976,0 -119.2666904806058,34.24129837732811,0 -119.2665860837933,34.2407769107316,0 -119.2664821559015,34.24005969014159,0 -119.266430369822,34.23943631650767,0 -119.2663433949361,34.23908452087863,0 -119.2661523861573,34.23814591474214,0 -119.2659958852617,34.23759143798613,0 -119.2657532592867,34.23633111682094,0 -119.2655967727642,34.23562115875244,0 -119.2654575518614,34.23528817975818,0 -119.2652666320158,34.23495993768746,0 -119.2650234499835,34.23426096859016,0 -119.2648677620633,34.23390253182674,0 -119.2645898736201,34.23304250671109,0 -119.2645547144582,34.23283863569102,0 -119.2645203233558,34.23245253053361,0 -119.2645379141657,34.2320405666262,0 -119.2644679372017,34.23141453267343,0 -119.2643642473635,34.23092010473632,0 -119.2642774287845,34.23070801199516,0 -119.2639821947714,34.2301177075218,0 -119.2636520279719,34.22916382464336,0 -119.2629922549216,34.22761603047639,0 -119.2626974862358,34.22710487081385,0 -119.262506375049,34.22656508786331,0 -119.2616904541411,34.22456222188767,0 -119.2615163363845,34.22408366750184,0 -119.2612214212734,34.22345504600312,0 -119.2609785707195,34.22298139656561,0 -119.2602492231504,34.2210779396278,0 -119.2595893719466,34.21977797963942,0 -119.2594681586721,34.21933046382608,0 -119.259363731317,34.21885629871232,0 -119.2589644921569,34.21787321277844,0 -119.2587736387866,34.21748214156784,0 -119.2583568869701,34.21649612026307,0 -119.2581660452778,34.21596984470265,0 -119.257922513801,34.21548266092998,0 -119.2574712181685,34.21446627222883,0 -119.257228246342,34.2140106355328,0 -119.2569681400498,34.21336729410321,0 -119.2567597830062,34.21297328623454,0 -119.2565336941172,34.21242790509667,0 -119.2563079402998,34.21199998290264,0 -119.2559956733306,34.21135038148124,0 -119.255388088805,34.21037662110128,0 -119.2546240680627,34.20887538479796,0 -119.2543981606333,34.20855533728375,0 -119.2539295463805,34.20761289327336,0 -119.2536169416448,34.20711003319659,0 -119.2532867973031,34.20632932616413,0 -119.252922155858,34.20559289721626,0 -119.2524710740245,34.20472745604419,0 -119.2522103380133,34.20430943233214,0 -119.2519501454829,34.20377198253946,0 -119.2516027840305,34.2031824113184,0 -119.251290467654,34.20247448369989,0 -119.2511690468686,34.20227933161939,0 -119.2510124300904,34.20209408795416,0 -119.2506828355177,34.20156350092471,0 -119.2506827959918,34.2015319523815,0 -119.2501618000765,34.20062378866482,0 -119.2498148635272,34.19990351649523,0 -119.2496411922334,34.19972041185441,0 -119.2494676431104,34.19946266371878,0 -119.249102895664,34.19876198839551,0 -119.2489465286174,34.19852519565411,0 -119.2486684290701,34.19784311572919,0 -119.2481999998702,34.19712597905888,0 -119.2474884344522,34.19588528921584,0 -119.2473148359219,34.19547458572095,0 -119.2471062525028,34.19510533864853,0 -119.2468802687167,34.19465006539422,0 -119.2465682577674,34.19395338697282,0 -119.246307811912,34.1934677440536,0 -119.2461515059508,34.19311151516871,0 -119.2457342016704,34.19231048099991,0 -119.2455608744313,34.19203244503107,0 -119.2451789413152,34.19114206809728,0 -119.2450400473992,34.19086285052692,0 -119.244797181574,34.19051731297104,0 -119.2446930371882,34.19022142415031,0 -119.2446057658583,34.18989860550683,0 -119.2444500968027,34.18961899445071,0 -119.2434950816545,34.18760513392515,0 -119.2429566817788,34.18666497629609,0 -119.2424704326987,34.1857240346158,0 -119.2419671102383,34.18472635836073,0 -119.2417934398427,34.18431986675845,0 -119.2415674919892,34.18386711168204,0 -119.2413246728763,34.18347649577275,0 -119.2411164712412,34.18308272867759,0 -119.240821131227,34.1826365511122,0 -119.2406301413127,34.18231303759065,0 -119.2399007254717,34.18094568568925,0 -119.2396234901037,34.18050469516229,0 -119.2391715908033,34.17958706009478,0 -119.238894206315,34.17917986819462,0 -119.2382862741414,34.17805274169441,0 -119.2378304896275,34.17727172994552,0</coordinates></LinearRing></outerBoundaryIs>
        </Polygon>
      </MultiGeometry>
    </Placemark>
  </Folder>
  <Style id="PolyStyle00">
    <LabelStyle>
      <color>00000000</color>
      <scale>0.000000</scale>
    </LabelStyle>
    <LineStyle>
      <color>ff6e6e6e</color>
      <width>0.700000</width>
    </LineStyle>
    <PolyStyle>
      <color>ffc5fce3</color>
      <outline>1</outline>
    </PolyStyle>
  </Style>
</Document>
</kml>